{
    "links": {
        "self": "http://www.neowsapp.com/rest/v1/neo/3748476?api_key=iIulBulltgU6a56xZRHN4H3l9WmuAYTsLGpBGhQ2"
    },
    "id": "3748476",
    "neo_reference_id": "3748476",
    "name": "(2016 FY12)",
    "designation": "2016 FY12",
    "nasa_jpl_url": "http://ssd.jpl.nasa.gov/sbdb.cgi?sstr=3748476",
    "absolute_magnitude_h": 26.0,
    "estimated_diameter": {
        "kilometers": {
            "estimated_diameter_min": 0.0167708462,
            "estimated_diameter_max": 0.0375007522
        },
        "meters": {
            "estimated_diameter_min": 16.7708462163,
            "estimated_diameter_max": 37.5007521798
        },
        "miles": {
            "estimated_diameter_min": 0.0104209175,
            "estimated_diameter_max": 0.0233018799
        },
        "feet": {
            "estimated_diameter_min": 55.0224631002,
            "estimated_diameter_max": 123.0339677816
        }
    },
    "is_potentially_hazardous_asteroid": false,
    "close_approach_data": [
        {
            "close_approach_date": "2016-04-17",
            "close_approach_date_full": "2016-Apr-17 19:16",
            "epoch_date_close_approach": 1460920560000,
            "relative_velocity": {
                "kilometers_per_second": "13.2838881757",
                "kilometers_per_hour": "47821.9974324772",
                "miles_per_hour": "29714.7294601967"
            },
            "miss_distance": {
                "astronomical": "0.015027835",
                "lunar": "5.845827815",
                "kilometers": "2248132.10671145",
                "miles": "1396924.51486001"
            },
            "orbiting_body": "Earth"
        }
    ],
    "orbital_data": {
        "orbit_id": "10",
        "orbit_determination_date": "2020-06-04 06:04:59",
        "first_observation_date": "2016-03-29",
        "last_observation_date": "2016-04-16",
        "data_arc_in_days": 18,
        "observations_used": 36,
        "orbit_uncertainty": "7",
        "minimum_orbit_intersection": ".00389527",
        "jupiter_tisserand_invariant": "3.412",
        "epoch_osculation": "2459000.5",
        "eccentricity": ".5924410550041344",
        "semi_major_axis": "2.193714891257141",
        "inclination": "6.312178983105174",
        "ascending_node_longitude": "207.5549920488686",
        "orbital_period": "1186.775854564515",
        "perihelion_distance": ".8940681267024806",
        "perihelion_argument": "47.41495032621764",
        "aphelion_distance": "3.493361655811802",
        "perihelion_time": "2458717.846501180198",
        "mean_anomaly": "85.74092503126266",
        "mean_motion": ".303342875249262",
        "equinox": "J2000",
        "orbit_class": {
            "orbit_class_type": "APO",
            "orbit_class_description": "Near-Earth asteroid orbits which cross the Earth’s orbit similar to that of 1862 Apollo",
            "orbit_class_range": "a (semi-major axis) > 1.0 AU; q (perihelion) < 1.017 AU"
        }
    },
    "is_sentry_object": false
}